EUTELSAT 7A             
1 28187U 04008A   25335.61477900  .00000123  00000+0  00000+0 0  9994
2 28187   5.3275  74.3724 0001364 204.5353 233.9493  1.00273432 79374
EUTELSAT 174A           
1 28924U 05052A   25335.68137184  .00000030  00000+0  00000+0 0  9994
2 28924   3.7176  78.9784 0006504 170.8153 240.2816  1.00270542 50351
EUTELSAT HOTBIRD 13B    
1 29270U 06032A   25336.15290957  .00000177  00000+0  00000+0 0  9991
2 29270   1.1509  84.4508 0003689 162.2158 272.7284  1.00270877 45337
EUTELSAT HOTBIRD 13C    
1 33459U 08065A   25336.13860948 -.00000248  00000+0  00000+0 0  9994
2 33459   2.4419  81.5335 0001176 183.7808 176.8753  1.00049400 45375
EUTELSAT 36B            
1 36101U 09065A   25336.15628961  .00000133  00000+0  00000+0 0  9993
2 36101   0.0413 333.7028 0006368 279.0065 285.3285  1.00272942 58732
EUTELSAT KA-SAT 9A      
1 37258U 10069A   25336.14814287  .00000083  00000+0  00000+0 0  9994
2 37258   0.0519 331.4572 0000871 227.7914 294.3436  1.00270352 42035
EUTELSAT 7 WEST A       
1 37816U 11051A   25336.14484953 -.00000039  00000+0  00000+0 0  9991
2 37816   0.0632   2.4128 0006024 222.5719 251.1133  1.00271389 51907
EUTELSAT 16A            
1 37836U 11057A   25336.14944288  .00000125  00000+0  00000+0 0  9996
2 37836   0.0596 344.3363 0006055 273.4192 243.3046  1.00273296  5354
